{"type": "FeatureCollection", "features": [{"type": "Feature", "properties": {"shapeName": "Abbottabad"}, "geometry": {"type": "Polygon", "coordinates": [[[8.0583, -4.0922], [8.0678, -4.0676], [8.0639, -4.062], [8.0566, -4.0634], [8.0538, -4.0641], [8.0503, -4.0653], [8.0499, -4.0655], [8.0484, -4.066], [8.047, -4.0661], [8.041, -4.0484], [8.0437, -4.0424], [8.048, -4.0417], [8.0678, -4.0325], [8.0682, -4.0223], [8.0506, -4.0229], [8.0424, -4.0204], [8.0396, -4.0204], [8.0394, -4.0203], [8.0381, -4.02], [8.0379, -4.02], [8.0351, -4.0189], [8.033, -4.0191], [8.0322, -4.0183], [8.0341, -4.0068], [8.0358, -4.006], [8.0362, -4.0057], [8.0415, -4.0031], [8.0443, -4.0004], [8.0518, -3.9987], [8.0553, -3.9855], [8.0428, -3.9959], [8.0384, -3.9903], [8.033, -3.9937], [8.032, -3.9934], [8.0287, -3.9928], [8.0283, -3.9927], [8.027, -3.9924], [8.0235, -3.9925], [8.021, -3.9946], [8.0126, -3.9888], [7.9996, -4.0051], [7.9562, -4.018], [7.9289, -4.0143], [7.9447, -3.9877], [7.9258, -3.9702], [7.9675, -3.9504], [7.9938, -3.887], [7.9473, -3.8613], [7.9214, -3.8689], [7.9088, -3.8439], [7.9283, -3.8163], [7.9251, -3.788], [7.8878, -3.758], [7.8444, -3.7499], [7.8606, -3.7214], [7.8493, -3.7058], [7.8113, -3.7052], [7.7827, -3.6837], [7.8235, -3.6109], [7.8468, -3.5913], [7.8719, -3.5874], [7.8738, -3.6058], [7.8924, -3.6071], [7.9041, -3.6347], [7.9802, -3.6049], [8.007, -3.6223], [8.025, -3.6145], [8.0383, -3.6349], [8.0662, -3.5652], [8.1167, -3.5828], [8.1363, -3.5624], [8.1369, -3.5433], [8.1646, -3.5445], [8.2009, -3.5245], [8.2296, -3.4743], [8.2831, -3.4661], [8.296, -3.4934], [8.322, -3.4968], [8.3206, -3.5136], [8.3404, -3.5235], [8.3555, -3.5772], [8.3788, -3.562], [8.3892, -3.5765], [8.3731, -3.5995], [8.4022, -3.6537], [8.3956, -3.7498], [8.4264, -3.8722], [8.3732, -3.8748], [8.316, -3.945], [8.2913, -3.9216], [8.2629, -3.9372], [8.267, -3.9608], [8.225, -3.9873], [8.204, -4.0395], [8.1699, -4.0712], [8.1312, -4.0802], [8.1153, -4.0722], [8.0872, -4.0994], [8.0571, -4.0981], [8.0583, -4.0922], [7.9305, -3.6284], [7.9305, -3.6284], [7.9305, -3.6284], [7.9305, -3.6284], [8.0583, -4.0922]]]}}, {"type": "Feature", "properties": {"shapeName": "Bajaur"}, "geometry": {"type": "Polygon", "coordinates": [[[6.1378, -3.3118], [6.0924, -3.2695], [6.0745, -3.1754], [6.1132, -3.1443], [6.1018, -3.1224], [6.0682, -3.1162], [6.0049, -3.1376], [5.9701, -3.1178], [5.8712, -3.1519], [5.8328, -3.1395], [5.7901, -3.1463], [5.768, -3.1421], [5.7732, -3.1183], [5.723, -3.0655], [5.695, -3.0851], [5.6544, -3.0556], [5.7171, -3.0304], [5.7342, -2.998], [5.7779, -2.9767], [5.8071, -2.898], [5.8722, -2.8478], [6.0694, -2.7787], [6.0893, -2.8087], [6.1364, -2.8383], [6.1775, -2.9528], [6.3155, -2.9767], [6.4023, -3.0229], [6.3745, -3.0246], [6.3612, -3.0508], [6.3448, -3.0511], [6.3594, -3.0961], [6.3478, -3.1446], [6.3088, -3.1494], [6.2852, -3.1757], [6.2527, -3.1839], [6.2313, -3.2652], [6.1915, -3.2791], [6.1797, -3.3023], [6.1378, -3.3118]]]}}, {"type": "Feature", "properties": {"shapeName": "Bannu"}, "geometry": {"type": "Polygon", "coordinates": [[[4.708, -5.3769], [4.7237, -5.309], [4.6666, -5.3063], [4.6373, -5.3147], [4.609, -5.3473], [4.5764, -5.3512], [4.5869, -5.3205], [4.6521, -5.2803], [4.6902, -5.1407], [4.7491, -5.0762], [4.7292, -5.0609], [4.7524, -5.0409], [4.7663, -4.96], [4.8081, -4.9154], [4.8564, -4.8985], [4.8423, -4.8668], [4.8811, -4.822], [4.9985, -4.7761], [5.0084, -4.743], [5.0328, -4.7397], [5.0866, -4.7503], [5.0695, -4.7612], [5.1089, -4.7931], [5.2511, -4.8045], [5.3059, -4.8326], [5.292, -4.8551], [5.2511, -4.8732], [5.2392, -4.9045], [5.2115, -4.9087], [5.2037, -4.9268], [5.2351, -4.9923], [5.2608, -5.0114], [5.3511, -5.0269], [5.3551, -5.0611], [5.4081, -5.1467], [5.3961, -5.1914], [5.3171, -5.22], [5.3011, -5.1815], [5.2494, -5.2146], [5.2006, -5.1878], [5.1859, -5.1952], [5.2048, -5.2138], [5.1833, -5.2074], [5.1481, -5.2485], [5.1176, -5.2489], [5.0651, -5.2199], [5.0529, -5.239], [5.0183, -5.2356], [4.9885, -5.2528], [4.9954, -5.237], [4.9307, -5.2204], [4.8998, -5.276], [4.8818, -5.2719], [4.8743, -5.3076], [4.858, -5.3023], [4.8312, -5.3229], [4.7303, -5.3563], [4.708, -5.3769]]]}}, {"type": "Feature", "properties": {"shapeName": "Battagram"}, "geometry": {"type": "Polygon", "coordinates": [[[7.9211, -3.1793], [7.9177, -3.2438], [7.8787, -3.256], [7.8559, -3.2497], [7.8361, -3.2207], [7.8038, -3.2342], [7.773, -3.2298], [7.7436, -3.2489], [7.7028, -3.2101], [7.7054, -3.1274], [7.6913, -3.1105], [7.6963, -3.0268], [7.7304, -3.0046], [7.7362, -2.9725], [7.7816, -2.9558], [7.8101, -2.9601], [7.8223, -2.9381], [7.8167, -2.9229], [7.6549, -2.8715], [7.6706, -2.8394], [7.6844, -2.8445], [7.7223, -2.8178], [7.7964, -2.7962], [7.8725, -2.7855], [7.9512, -2.8328], [8.0286, -2.8289], [8.0476, -2.8178], [8.0694, -2.8197], [8.0869, -2.8437], [8.2195, -2.8249], [8.2811, -2.8295], [8.3392, -2.8603], [8.3986, -2.8592], [8.3989, -2.8968], [8.337, -2.9437], [8.332, -2.9669], [8.2834, -2.9767], [8.2714, -3.0079], [8.1734, -2.982], [8.0756, -2.9983], [8.0676, -3.0062], [8.0811, -3.0338], [8.0526, -3.0673], [8.0337, -3.1485], [7.9692, -3.1448], [7.9211, -3.1793]]]}}, {"type": "Feature", "properties": {"shapeName": "Buner"}, "geometry": {"type": "Polygon", "coordinates": [[[7.2707, -3.7222], [7.2067, -3.7006], [7.1905, -3.6843], [7.1226, -3.6799], [7.1336, -3.6578], [7.1258, -3.6392], [7.1814, -3.585], [7.1605, -3.5663], [7.1664, -3.5431], [7.204, -3.5101], [7.1957, -3.4684], [7.1554, -3.4676], [7.1394, -3.4557], [7.1331, -3.4281], [7.097, -3.4221], [7.0644, -3.3942], [6.942, -3.3967], [6.8964, -3.3718], [6.8971, -3.3284], [6.8707, -3.317], [6.8911, -3.2847], [6.9099, -3.278], [6.89, -3.2413], [6.9428, -3.2267], [6.9777, -3.1923], [7.0449, -3.1795], [7.0743, -3.1324], [7.1123, -3.111], [7.1378, -3.1032], [7.1902, -3.1202], [7.2091, -3.0824], [7.2241, -3.0776], [7.2603, -3.0847], [7.2686, -3.1251], [7.2898, -3.129], [7.3132, -3.1668], [7.3946, -3.153], [7.4029, -3.127], [7.4398, -3.1144], [7.4837, -3.124], [7.4598, -3.1602], [7.4588, -3.1855], [7.4969, -3.2521], [7.4944, -3.2973], [7.5453, -3.3445], [7.5118, -3.3668], [7.4792, -3.3685], [7.522, -3.4192], [7.5097, -3.4922], [7.4714, -3.5473], [7.4414, -3.5486], [7.3755, -3.5859], [7.3046, -3.6431], [7.3251, -3.6694], [7.321, -3.6874], [7.3065, -3.6997], [7.2801, -3.6961], [7.2707, -3.7222]]]}}, {"type": "Feature", "properties": {"shapeName": "Charsadda"}, "geometry": {"type": "Polygon", "coordinates": [[[6.4284, -3.8465], [6.425, -3.821], [6.4055, -3.8035], [6.3482, -3.7815], [6.3008, -3.7847], [6.2572, -3.7685], [6.2196, -3.7281], [6.1622, -3.7192], [6.127, -3.6859], [6.0437, -3.6863], [6.0251, -3.6605], [6.0399, -3.6314], [6.0304, -3.6086], [6.0589, -3.6168], [6.0841, -3.5956], [6.0808, -3.5398], [6.1127, -3.5173], [6.1153, -3.4997], [6.1505, -3.4729], [6.1893, -3.4885], [6.1896, -3.4604], [6.2281, -3.4459], [6.2293, -3.4158], [6.324, -3.3706], [6.3439, -3.3728], [6.3572, -3.4202], [6.3952, -3.4328], [6.4307, -3.4693], [6.4429, -3.498], [6.4243, -3.5026], [6.4127, -3.5615], [6.4318, -3.5695], [6.4387, -3.5921], [6.4914, -3.602], [6.488, -3.6191], [6.505, -3.62], [6.5251, -3.6698], [6.5203, -3.6874], [6.5298, -3.6843], [6.5592, -3.7297], [6.5072, -3.7521], [6.4458, -3.846], [6.4284, -3.8465]]]}}, {"type": "Feature", "properties": {"shapeName": "Chitral Lower"}, "geometry": {"type": "Polygon", "coordinates": [[[6.4663, -2.3422], [6.405, -2.332], [6.3659, -2.3766], [6.3718, -2.3939], [6.343, -2.4162], [6.3453, -2.458], [6.2519, -2.4967], [6.1997, -2.4883], [6.1625, -2.4486], [6.1104, -2.4198], [6.103, -2.3957], [6.117, -2.3637], [6.2259, -2.243], [6.153, -2.1734], [6.1583, -2.1318], [6.1781, -2.1141], [6.1739, -2.0889], [6.0723, -2.0526], [6.0406, -2.0279], [6.0525, -1.9913], [6.0871, -1.9569], [6.0964, -1.9202], [6.0239, -1.8816], [6.0292, -1.8247], [5.95, -1.7266], [5.8874, -1.713], [5.8855, -1.6535], [5.8604, -1.6363], [5.8061, -1.6415], [5.7377, -1.5789], [5.6814, -1.5509], [5.706, -1.5023], [5.7368, -1.492], [5.7401, -1.4584], [5.8608, -1.4012], [5.8745, -1.3712], [5.9455, -1.3377], [5.9722, -1.29], [6.0236, -1.2596], [6.0655, -1.2553], [6.0698, -1.2311], [6.1225, -1.2212], [6.1265, -1.201], [6.1076, -1.1757], [6.1759, -1.1298], [6.1874, -1.0793], [6.202, -1.0576], [6.2259, -1.0505], [6.308, -1.0854], [6.391, -1.1396], [6.4637, -1.1409], [6.4817, -1.1818], [6.5247, -1.1907], [6.5125, -1.2015], [6.441, -1.2074], [6.4004, -1.2628], [6.4178, -1.2784], [6.415, -1.2937], [6.4422, -1.3057], [6.4374, -1.326], [6.4566, -1.3654], [6.5019, -1.4017], [6.49, -1.4209], [6.525, -1.4654], [6.6133, -1.4684], [6.6155, -1.489], [6.6615, -1.5154], [6.6899, -1.4967], [6.7067, -1.4549], [6.8102, -1.4863], [6.8109, -1.5186], [6.8233, -1.5263], [6.8814, -1.51], [6.9334, -1.4602], [6.9479, -1.492], [6.9826, -1.5215], [6.9871, -1.5462], [6.9697, -1.5523], [6.971, -1.5816], [6.915, -1.6274], [6.9073, -1.6507], [6.9321, -1.7045], [6.8668, -1.7553], [6.8606, -1.7809], [6.8265, -1.7851], [6.8131, -1.847], [6.778, -1.8445], [6.7617, -1.8747], [6.733, -1.9361], [6.7626, -1.9613], [6.7486, -1.9907], [6.7128, -2.0136], [6.679, -2.0072], [6.5974, -2.0498], [6.5526, -2.0968], [6.5354, -2.1241], [6.5316, -2.1726], [6.5358, -2.1917], [6.5526, -2.2006], [6.4937, -2.2235], [6.4856, -2.2416], [6.5007, -2.2674], [6.4859, -2.2749], [6.4663, -2.3422]]]}}, {"type": "Feature", "properties": {"shapeName": "Chitral Upper"}, "geometry": {"type": "Polygon", "coordinates": [[[6.7067, -1.4549], [6.6865, -1.5004], [6.6523, -1.5151], [6.6155, -1.489], [6.6133, -1.4684], [6.525, -1.4654], [6.49, -1.4209], [6.5019, -1.4017], [6.4566, -1.3654], [6.4374, -1.326], [6.4422, -1.3057], [6.415, -1.2937], [6.4178, -1.2784], [6.4004, -1.2628], [6.441, -1.2074], [6.5125, -1.2015], [6.5247, -1.1907], [6.4817, -1.1818], [6.4632, -1.1446], [6.4689, -1.1065], [6.418, -1.0919], [6.4218, -1.0411], [6.4339, -1.0192], [6.525, -1.0194], [6.556, -0.9557], [6.6478, -0.9478], [6.7024, -0.9158], [6.7469, -0.9139], [6.7564, -0.9019], [6.7515, -0.8554], [6.7956, -0.8583], [6.8306, -0.8414], [6.8653, -0.8471], [6.8802, -0.827], [6.8602, -0.7977], [6.9094, -0.7326], [6.9873, -0.7495], [7.0338, -0.7196], [7.0585, -0.7318], [7.1003, -0.7231], [7.1152, -0.7054], [7.2103, -0.7103], [7.295, -0.6486], [7.4051, -0.6208], [7.4851, -0.6372], [7.5297, -0.6203], [7.5508, -0.6336], [7.5828, -0.6252], [7.5996, -0.6357], [7.6822, -0.6368], [7.7007, -0.625], [7.7336, -0.6324], [7.7656, -0.5948], [7.7991, -0.6094], [7.8593, -0.6096], [7.9117, -0.5794], [7.9536, -0.5858], [8.0023, -0.5734], [8.0268, -0.5903], [8.1354, -0.5741], [8.175, -0.6004], [8.2126, -0.5789], [8.2586, -0.5903], [8.2895, -0.5662], [8.3359, -0.5781], [8.399, -0.5687], [8.4379, -0.5862], [8.5269, -0.5572], [8.5589, -0.5664], [8.61, -0.5488], [8.6029, -0.5838], [8.6495, -0.6124], [8.6513, -0.638], [8.7118, -0.661], [8.7562, -0.6578], [8.7573, -0.6807], [8.7822, -0.6921], [8.8132, -0.686], [8.8656, -0.7435], [8.8552, -0.7945], [8.7586, -0.7728], [8.7304, -0.7913], [8.6561, -0.7804], [8.6228, -0.8097], [8.5676, -0.7961], [8.5195, -0.8028], [8.5045, -0.7681], [8.4747, -0.7826], [8.4365, -0.7823], [8.426, -0.7693], [8.4077, -0.7786], [8.368, -0.7548], [8.3384, -0.7585], [8.3144, -0.7439], [8.284, -0.7589], [8.2312, -0.7523], [8.2284, -0.7735], [8.1679, -0.7887], [8.1024, -0.7816], [8.0541, -0.7985], [8.0254, -0.7692], [7.9529, -0.8125], [7.928, -0.814], [7.8968, -0.7954], [7.9101, -0.8355], [7.9039, -0.8762], [7.9294, -0.9055], [7.8812, -0.9627], [7.8763, -0.9865], [7.7892, -1.0108], [7.7984, -1.0241], [7.7852, -1.0353], [7.7873, -1.0516], [7.8016, -1.058], [7.7917, -1.0728], [7.7549, -1.0654], [7.7262, -1.0789], [7.7036, -1.069], [7.6752, -1.0924], [7.65, -1.0961], [7.6687, -1.1197], [7.662, -1.1583], [7.5918, -1.1933], [7.5847, -1.2166], [7.5293, -1.2572], [7.4986, -1.2549], [7.477, -1.2815], [7.4291, -1.2969], [7.4408, -1.3175], [7.3662, -1.2878], [7.3199, -1.3064], [7.3102, -1.3422], [7.2793, -1.3617], [7.2846, -1.3733], [7.266, -1.3973], [7.2954, -1.4371], [7.251, -1.4801], [7.2449, -1.5208], [7.2703, -1.5447], [7.3023, -1.5456], [7.3215, -1.5759], [7.2962, -1.6144], [7.2732, -1.6132], [7.2682, -1.6575], [7.2429, -1.669], [7.2509, -1.7048], [7.2242, -1.7239], [7.2237, -1.7482], [7.1671, -1.7902], [7.1254, -1.794], [7.1101, -1.8363], [7.0699, -1.8678], [7.0149, -1.8714], [6.997, -1.8538], [6.975, -1.8686], [6.9214, -1.868], [6.8947, -1.8569], [6.858, -1.885], [6.8332, -1.8506], [6.8089, -1.8391], [6.8254, -1.8218], [6.8265, -1.7851], [6.8606, -1.7809], [6.8668, -1.7553], [6.9321, -1.7045], [6.9073, -1.6507], [6.915, -1.6274], [6.971, -1.5816], [6.9697, -1.5523], [6.9871, -1.5462], [6.9826, -1.5215], [6.9479, -1.492], [6.9402, -1.4646], [6.903, -1.4786], [6.8814, -1.51], [6.8233, -1.5263], [6.8109, -1.5186], [6.8102, -1.4863], [6.7067, -1.4549]]]}}, {"type": "Feature", "properties": {"shapeName": "D.I. Khan"}, "geometry": {"type": "Polygon", "coordinates": [[[4.8007, -7.0071], [4.7453, -7.1071], [4.6073, -7.1464], [4.5847, -7.1211], [4.5742, -7.0671], [4.5905, -7.0596], [4.5834, -6.9717], [4.5978, -6.8524], [4.5757, -6.754], [4.5577, -6.7527], [4.4442, -6.8385], [4.4148, -6.8448], [4.4019, -6.8237], [4.3806, -6.821], [4.3814, -6.8538], [4.3494, -6.8914], [4.3307, -6.8833], [4.2888, -6.7533], [4.2333, -6.7459], [4.2094, -6.7291], [4.2045, -6.4594], [4.2172, -6.4364], [4.2025, -6.4197], [4.1951, -6.3671], [4.2165, -6.337], [4.2195, -6.3078], [4.29, -6.3146], [4.318, -6.3322], [4.3268, -6.3532], [4.3812, -6.3689], [4.4491, -6.3619], [4.4657, -6.3784], [4.4869, -6.3744], [4.519, -6.4051], [4.5282, -6.3651], [4.4814, -6.1825], [4.5258, -6.1573], [4.5708, -6.1106], [4.551, -6.088], [4.5564, -6.0715], [4.5847, -6.0891], [4.7328, -6.1032], [4.8468, -6.0679], [4.8931, -6.0781], [4.941, -6.034], [4.9415, -5.9609], [4.9894, -5.9111], [5.063, -5.8737], [5.1, -5.8874], [5.1823, -5.8406], [5.2308, -5.8464], [5.2708, -5.8176], [5.5181, -5.7402], [5.6197, -5.6597], [5.6544, -5.6758], [5.7227, -5.5996], [5.7607, -5.6279], [5.7779, -5.6013], [5.8022, -5.6036], [5.8045, -5.577], [5.832, -5.5793], [5.8649, -5.6196], [5.8445, -5.6978], [5.8571, -5.7123], [5.8359, -5.7169], [5.8547, -5.761], [5.7849, -5.7724], [5.7215, -5.8256], [5.6447, -5.9206], [5.6525, -5.9723], [5.6329, -5.9974], [5.5867, -6.0035], [5.5522, -6.148], [5.5271, -6.1601], [5.5358, -6.2362], [5.5256, -6.3259], [5.4919, -6.3449], [5.4488, -6.4468], [5.4331, -6.4453], [5.3767, -6.5137], [5.3673, -6.535], [5.3821, -6.5494], [5.3469, -6.5472], [5.3281, -6.5684], [5.314, -6.6361], [5.332, -6.6635], [5.3085, -6.684], [5.3061, -6.7083], [5.3343, -6.7357], [5.332, -6.7478], [5.2967, -6.7478], [5.3101, -6.7783], [5.3257, -6.7851], [5.3155, -6.8262], [5.3265, -6.8338], [5.263, -6.8528], [5.2607, -6.8809], [5.2419, -6.8877], [5.2544, -6.8969], [5.2489, -6.9045], [5.1972, -6.9372], [5.1941, -6.9805], [5.1753, -6.9859], [5.151, -6.9767], [5.1408, -6.9554], [5.1151, -6.9521], [5.0687, -6.976], [4.9911, -6.9714], [4.9331, -6.9478], [4.8979, -6.9813], [4.8007, -7.0071]]]}}, {"type": "Feature", "properties": {"shapeName": "Hangu"}, "geometry": {"type": "Polygon", "coordinates": [[[5.0702, -4.7594], [5.0869, -4.7507], [5.0084, -4.743], [5.0141, -4.7288], [4.9932, -4.7302], [4.9409, -4.7034], [4.928, -4.6636], [4.9039, -4.6575], [4.9122, -4.6313], [4.8585, -4.5966], [4.8576, -4.5668], [4.9669, -4.5512], [5.0103, -4.4951], [5.0671, -4.5014], [5.0994, -4.4775], [5.1449, -4.4873], [5.1329, -4.4385], [5.154, -4.3709], [5.2212, -4.3778], [5.252, -4.3986], [5.3292, -4.4041], [5.3529, -4.3939], [5.4279, -4.4155], [5.4597, -4.4125], [5.5289, -4.3726], [5.6283, -4.3596], [5.6554, -4.3449], [5.6847, -4.361], [5.6772, -4.3663], [5.7229, -4.3708], [5.6995, -4.4091], [5.6772, -4.411], [5.6769, -4.4327], [5.7054, -4.4559], [5.6275, -4.4578], [5.6085, -4.4955], [5.5659, -4.4991], [5.5912, -4.52], [5.5897, -4.5606], [5.5697, -4.5811], [5.5324, -4.5801], [5.5229, -4.5838], [5.5313, -4.5913], [5.5012, -4.5946], [5.5176, -4.607], [5.5089, -4.6234], [5.3344, -4.6345], [5.3401, -4.6441], [5.3217, -4.6723], [5.3095, -4.6727], [5.3125, -4.6881], [5.1747, -4.6559], [5.1774, -4.6698], [5.1639, -4.6785], [5.1782, -4.6965], [5.165, -4.7549], [5.0702, -4.7594]]]}}, {"type": "Feature", "properties": {"shapeName": "Haripur"}, "geometry": {"type": "Polygon", "coordinates": [[[7.7806, -4.1923], [7.7162, -4.2046], [7.7251, -4.1859], [7.6835, -4.1794], [7.6741, -4.1723], [7.6835, -4.162], [7.6134, -4.1656], [7.6042, -4.1484], [7.6143, -4.134], [7.628, -4.1203], [7.6441, -4.1269], [7.6635, -4.0938], [7.6053, -4.0919], [7.5998, -4.0724], [7.6213, -4.0716], [7.6173, -4.0234], [7.5717, -4.0236], [7.5517, -4.0051], [7.5433, -3.9913], [7.5658, -3.9812], [7.5375, -3.9489], [7.4886, -3.9862], [7.5011, -4.0016], [7.4664, -4.0022], [7.4683, -4.0311], [7.3943, -4.0575], [7.382, -4.0315], [7.3489, -4.0293], [7.3752, -3.9911], [7.4042, -3.9731], [7.3502, -3.9482], [7.2874, -3.9451], [7.2805, -3.8994], [7.3242, -3.908], [7.3783, -3.8756], [7.4003, -3.8587], [7.4227, -3.8059], [7.4444, -3.7967], [7.4429, -3.7818], [7.5529, -3.723], [7.521, -3.7102], [7.5371, -3.688], [7.5252, -3.6624], [7.5445, -3.614], [7.5385, -3.5859], [7.5187, -3.574], [7.5183, -3.5522], [7.4714, -3.5473], [7.5092, -3.4857], [7.5376, -3.4735], [7.5836, -3.4967], [7.6132, -3.4871], [7.6524, -3.5178], [7.6389, -3.5498], [7.6866, -3.572], [7.7094, -3.6074], [7.8063, -3.6493], [7.7827, -3.6837], [7.8113, -3.7052], [7.8493, -3.7058], [7.8606, -3.7214], [7.8444, -3.7499], [7.8878, -3.758], [7.9251, -3.788], [7.9283, -3.8163], [7.9088, -3.8439], [7.9214, -3.8689], [7.9473, -3.8613], [7.9942, -3.8902], [7.9675, -3.9504], [7.9258, -3.9702], [7.9447, -3.9877], [7.9289, -4.0143], [7.9562, -4.018], [7.9996, -4.0051], [8.0126, -3.9888], [8.0428, -3.9959], [8.0562, -3.9861], [8.0322, -4.0183], [8.0682, -4.0223], [8.041, -4.0484], [8.047, -4.0661], [8.0678, -4.0676], [8.056, -4.0944], [8.0638, -4.1047], [8.0143, -4.1183], [7.9955, -4.111], [7.9545, -4.1392], [7.9115, -4.1309], [7.8475, -4.1466], [7.8292, -4.1716], [7.8051, -4.1723], [7.7806, -4.1923]]]}}, {"type": "Feature", "properties": {"shapeName": "Karak"}, "geometry": {"type": "Polygon", "coordinates": [[[5.6061, -5.2608], [5.4433, -5.2527], [5.404, -5.2103], [5.3961, -5.1914], [5.4081, -5.1467], [5.3551, -5.0611], [5.3488, -5.0243], [5.2608, -5.0114], [5.2351, -4.9923], [5.2106, -4.9465], [5.2115, -4.9087], [5.2392, -4.9045], [5.2511, -4.8732], [5.292, -4.8551], [5.3059, -4.8326], [5.2511, -4.8045], [5.1082, -4.7917], [5.0747, -4.7633], [5.165, -4.7549], [5.1782, -4.6965], [5.1639, -4.6785], [5.1774, -4.6698], [5.1747, -4.6559], [5.3125, -4.6881], [5.3096, -4.6725], [5.3217, -4.6723], [5.3401, -4.6441], [5.3344, -4.6345], [5.5071, -4.6244], [5.5176, -4.607], [5.5012, -4.5946], [5.5236, -4.5877], [5.5292, -4.608], [5.5573, -4.6156], [5.7134, -4.6153], [5.716, -4.6298], [5.8298, -4.6385], [5.8328, -4.6827], [5.9049, -4.6824], [5.9068, -4.7046], [5.9471, -4.7097], [5.9827, -4.6959], [5.9788, -4.7647], [5.9418, -4.7827], [5.9313, -4.819], [5.9655, -4.8338], [5.9621, -4.8592], [5.9848, -4.8921], [5.9504, -4.9344], [6.0129, -4.9862], [5.9919, -5.0172], [5.961, -5.0369], [5.8945, -5.0348], [5.8701, -5.052], [5.8254, -5.0388], [5.8262, -5.0223], [5.673, -5.0695], [5.6456, -5.0871], [5.6201, -5.1268], [5.6061, -5.2608]]]}}, {"type": "Feature", "properties": {"shapeName": "Khyber"}, "geometry": {"type": "Polygon", "coordinates": [[[5.0891, -4.188], [5.0461, -4.1681], [5.0241, -4.1258], [4.9945, -4.1262], [4.9803, -4.1391], [4.9872, -4.1516], [4.9558, -4.1456], [4.942, -4.0751], [4.9078, -4.0851], [4.8881, -4.0758], [4.8895, -4.0631], [4.854, -4.0633], [4.8557, -4.0252], [4.796, -4.0064], [4.7923, -3.9525], [4.9131, -3.9595], [4.9579, -3.9372], [5.0276, -3.9488], [5.1887, -3.9452], [5.2392, -3.9188], [5.312, -3.924], [5.3546, -3.9003], [5.36, -3.8851], [5.4661, -3.8618], [5.4902, -3.8389], [5.5397, -3.8304], [5.5479, -3.8132], [5.5374, -3.7776], [5.6039, -3.7052], [5.5971, -3.661], [5.6139, -3.6353], [5.5984, -3.6025], [5.6028, -3.5754], [5.6292, -3.5562], [5.6589, -3.5044], [5.7342, -3.5162], [5.8208, -3.5846], [5.8065, -3.6486], [5.7905, -3.666], [5.8129, -3.6735], [5.8142, -3.7067], [5.8259, -3.7088], [5.8255, -3.6972], [5.9392, -3.7042], [5.9374, -3.7281], [5.8995, -3.7616], [5.9016, -3.782], [5.8871, -3.7942], [5.9105, -3.8502], [5.8996, -3.8946], [5.9295, -3.8977], [5.937, -3.9392], [5.9794, -3.9915], [5.9642, -4.0415], [6.0636, -4.1141], [6.0452, -4.1805], [5.945, -4.1824], [5.8555, -4.1624], [5.8382, -4.176], [5.7694, -4.1278], [5.7511, -4.1009], [5.6966, -4.0823], [5.6264, -4.1099], [5.5524, -4.0724], [5.4862, -4.0725], [5.4159, -4.0809], [5.4315, -4.1289], [5.4134, -4.1369], [5.3167, -4.1561], [5.266, -4.1431], [5.2476, -4.1566], [5.0891, -4.188]]]}}, {"type": "Feature", "properties": {"shapeName": "Kohat"}, "geometry": {"type": "Polygon", "coordinates": [[[6.3035, -4.9637], [6.2028, -4.9336], [6.1634, -4.873], [6.1628, -4.8206], [6.1066, -4.772], [6.0624, -4.7865], [6.0684, -4.8098], [6.0431, -4.8074], [6.0324, -4.788], [5.9752, -4.7762], [5.9827, -4.6959], [5.9372, -4.7106], [5.9068, -4.7046], [5.9049, -4.6824], [5.8328, -4.6827], [5.8298, -4.6385], [5.7798, -4.6272], [5.5293, -4.608], [5.5229, -4.5838], [5.5697, -4.5811], [5.5897, -4.5606], [5.5912, -4.52], [5.5659, -4.4991], [5.6085, -4.4955], [5.6275, -4.4578], [5.7054, -4.4559], [5.6769, -4.4327], [5.6772, -4.411], [5.6995, -4.4091], [5.7226, -4.3765], [5.6772, -4.3663], [5.6847, -4.361], [5.6581, -4.3455], [5.6023, -4.3588], [5.6067, -4.3487], [5.5496, -4.3334], [5.6149, -4.2937], [5.6624, -4.3026], [5.6105, -4.2625], [5.6138, -4.2322], [5.598, -4.1958], [5.6217, -4.1892], [5.6464, -4.2058], [5.6622, -4.1995], [5.7014, -4.214], [5.717, -4.2487], [5.7617, -4.2815], [5.8641, -4.3271], [5.8838, -4.2951], [5.93, -4.2948], [5.925, -4.276], [5.9371, -4.2647], [5.8996, -4.2415], [5.9044, -4.2189], [5.867, -4.2065], [5.863, -4.1647], [5.945, -4.1824], [6.0441, -4.1798], [6.0957, -4.2223], [6.0976, -4.2366], [6.1409, -4.2622], [6.2809, -4.2283], [6.282, -4.2397], [6.2546, -4.2602], [6.2657, -4.2873], [6.3275, -4.2717], [6.3216, -4.2546], [6.3308, -4.2476], [6.3715, -4.2611], [6.4113, -4.2361], [6.4672, -4.2382], [6.5573, -4.1968], [6.6372, -4.2037], [6.6291, -4.2592], [6.6117, -4.2748], [6.6081, -4.3587], [6.5786, -4.3778], [6.5937, -4.4118], [6.5824, -4.4418], [6.4811, -4.5142], [6.4797, -4.5558], [6.4663, -4.5715], [6.4206, -4.5715], [6.3001, -4.6377], [6.3153, -4.6743], [6.2861, -4.7087], [6.29, -4.7392], [6.3412, -4.7955], [6.3514, -4.8255], [6.3412, -4.8637], [6.2979, -4.9014], [6.3035, -4.9637]]]}}, {"type": "Feature", "properties": {"shapeName": "Kohistan Lower"}, "geometry": {"type": "Polygon", "coordinates": [[[7.6893, -2.7123], [7.6933, -2.7224], [7.6791, -2.7294], [7.7095, -2.7526], [7.7033, -2.7813], [7.6706, -2.7671], [7.6202, -2.7736], [7.5913, -2.7529], [7.5923, -2.7171], [7.5608, -2.6555], [7.573, -2.6204], [7.5534, -2.5954], [7.5286, -2.5915], [7.5216, -2.5702], [7.4871, -2.5648], [7.443, -2.5367], [7.4639, -2.4816], [7.4897, -2.4723], [7.4829, -2.4487], [7.5231, -2.4466], [7.5339, -2.422], [7.56, -2.4245], [7.6862, -2.4683], [7.7256, -2.4498], [7.7588, -2.4017], [7.796, -2.3901], [7.8319, -2.4352], [7.8598, -2.4459], [7.87, -2.4833], [7.8859, -2.4954], [7.9488, -2.5031], [7.9815, -2.4687], [8.0068, -2.4795], [8.0098, -2.5068], [7.9534, -2.5357], [7.9298, -2.5748], [7.8753, -2.6103], [7.8412, -2.6093], [7.8125, -2.6251], [7.8055, -2.6468], [7.7722, -2.6641], [7.7709, -2.6937], [7.6893, -2.7123]]]}}, {"type": "Feature", "properties": {"shapeName": "Kohistan Upper"}, "geometry": {"type": "Polygon", "coordinates": [[[8.9209, -2.5708], [8.9253, -2.5941], [8.8797, -2.6313], [8.8182, -2.6345], [8.7999, -2.6541], [8.7976, -2.7146], [8.7678, -2.7498], [8.7215, -2.7293], [8.7039, -2.7372], [8.6424, -2.724], [8.6113, -2.733], [8.6013, -2.7618], [8.5774, -2.7778], [8.5471, -2.7539], [8.5087, -2.7575], [8.4199, -2.7003], [8.3395, -2.6684], [8.2952, -2.6652], [8.2382, -2.6895], [8.0501, -2.643], [8.0249, -2.5971], [7.937, -2.5578], [8.0064, -2.5076], [7.9932, -2.4747], [7.9756, -2.4729], [7.9432, -2.5078], [7.8811, -2.4999], [7.8653, -2.4877], [7.8552, -2.4499], [7.8277, -2.439], [7.7922, -2.3933], [7.7554, -2.405], [7.7225, -2.4538], [7.6836, -2.4725], [7.533, -2.4256], [7.5603, -2.3177], [7.5082, -2.2981], [7.4893, -2.2631], [7.5255, -2.2198], [7.5208, -2.0752], [7.5719, -1.9124], [7.5765, -1.803], [7.5642, -1.7575], [7.5883, -1.757], [7.5984, -1.7276], [7.6177, -1.743], [7.6863, -1.7391], [7.6837, -1.7697], [7.7001, -1.7779], [7.8045, -1.753], [7.8407, -1.7794], [7.912, -1.741], [7.9755, -1.7793], [8.0124, -1.7571], [8.0462, -1.799], [8.0426, -1.8419], [7.9994, -1.8699], [7.944, -1.8734], [7.947, -1.9035], [8.0436, -1.9756], [8.0879, -1.9893], [8.1431, -1.9772], [8.1964, -1.9879], [8.2289, -2.0524], [8.2759, -2.0768], [8.2769, -2.1303], [8.2895, -2.1471], [8.3715, -2.1248], [8.3993, -2.1358], [8.4239, -2.1213], [8.4617, -2.1371], [8.5375, -2.1143], [8.5894, -2.1408], [8.6488, -2.1328], [8.6774, -2.1501], [8.726, -2.1494], [8.7382, -2.2335], [8.6964, -2.2376], [8.6538, -2.2723], [8.6226, -2.3217], [8.6293, -2.3456], [8.62, -2.3459], [8.6159, -2.3699], [8.638, -2.3992], [8.6355, -2.4192], [8.6647, -2.4438], [8.673, -2.4658], [8.6645, -2.4755], [8.6851, -2.4798], [8.6857, -2.4984], [8.7536, -2.4756], [8.8032, -2.4939], [8.8265, -2.5181], [8.8924, -2.509], [8.9308, -2.5602], [8.9209, -2.5708]]]}}, {"type": "Feature", "properties": {"shapeName": "Kolai Palas Kohistan"}, "geometry": {"type": "Polygon", "coordinates": [[[7.8803, -2.7874], [7.7223, -2.8178], [7.6844, -2.8445], [7.6706, -2.8394], [7.6762, -2.8074], [7.6953, -2.7961], [7.7081, -2.7652], [7.7059, -2.747], [7.6791, -2.7294], [7.6933, -2.7224], [7.6893, -2.7123], [7.7709, -2.6937], [7.7722, -2.6641], [7.8055, -2.6468], [7.8125, -2.6251], [7.8412, -2.6093], [7.8753, -2.6103], [7.9298, -2.5748], [7.9425, -2.5525], [8.0314, -2.5913], [8.0631, -2.639], [8.2471, -2.6825], [8.3047, -2.6584], [8.3368, -2.6584], [8.3882, -2.6715], [8.5206, -2.7495], [8.4802, -2.7701], [8.454, -2.8302], [8.3986, -2.8592], [8.3392, -2.8603], [8.2811, -2.8295], [8.2195, -2.8249], [8.0869, -2.8437], [8.0694, -2.8197], [8.0476, -2.8178], [8.0286, -2.8289], [7.9512, -2.8328], [7.8803, -2.7874]]]}}, {"type": "Feature", "properties": {"shapeName": "Kurram Lower and Central"}, "geometry": {"type": "Polygon", "coordinates": [[[4.9669, -4.5512], [4.8575, -4.5662], [4.8584, -4.5978], [4.9122, -4.6313], [4.903, -4.6444], [4.8162, -4.6593], [4.7979, -4.6371], [4.7511, -4.6485], [4.7195, -4.6364], [4.656, -4.6615], [4.6403, -4.6154], [4.6496, -4.5882], [4.6277, -4.576], [4.6182, -4.5478], [4.5735, -4.5433], [4.559, -4.5032], [4.5221, -4.4893], [4.5123, -4.4637], [4.4746, -4.4357], [4.5038, -4.304], [4.454, -4.2931], [4.4973, -4.1924], [4.4931, -4.149], [4.6228, -4.1102], [4.5631, -4.0671], [4.5426, -4.0327], [4.5548, -3.9248], [4.7667, -3.9376], [4.7923, -3.9525], [4.796, -4.0064], [4.8557, -4.0252], [4.854, -4.0633], [4.8895, -4.0631], [4.8881, -4.0758], [4.9078, -4.0851], [4.942, -4.0751], [4.9434, -4.1094], [4.9567, -4.1169], [4.949, -4.1377], [4.9875, -4.1527], [4.9594, -4.1924], [4.9982, -4.2214], [5.0011, -4.2577], [5.0968, -4.2988], [5.1547, -4.3002], [5.1585, -4.3259], [5.1348, -4.3603], [5.1552, -4.3707], [5.1329, -4.4385], [5.1447, -4.4861], [5.0992, -4.4775], [5.068, -4.501], [5.0103, -4.4951], [4.9669, -4.5512]]]}}, {"type": "Feature", "properties": {"shapeName": "Lakki Marwat"}, "geometry": {"type": "Polygon", "coordinates": [[[5.1, -5.8874], [5.0499, -5.8691], [5.0587, -5.8192], [5.106, -5.7908], [5.0914, -5.7728], [5.1025, -5.7587], [5.0728, -5.7352], [5.0449, -5.7396], [4.9745, -5.6895], [4.9949, -5.655], [4.9726, -5.61], [4.9149, -5.5437], [4.9163, -5.5296], [4.8385, -5.4959], [4.7548, -5.523], [4.6909, -5.5296], [4.6481, -5.5198], [4.6028, -5.4552], [4.6437, -5.4037], [4.858, -5.3023], [4.8743, -5.3076], [4.8818, -5.2719], [4.8998, -5.276], [4.9307, -5.2204], [4.9954, -5.237], [4.9885, -5.2528], [5.0183, -5.2356], [5.0529, -5.239], [5.0651, -5.2199], [5.1176, -5.2489], [5.1481, -5.2485], [5.1833, -5.2074], [5.2048, -5.2138], [5.1859, -5.1952], [5.2006, -5.1878], [5.2494, -5.2146], [5.3011, -5.1815], [5.3171, -5.22], [5.3961, -5.1914], [5.4493, -5.2558], [5.5748, -5.26], [5.5938, -5.3258], [5.6201, -5.3599], [5.6084, -5.3916], [5.6166, -5.4089], [5.6358, -5.4142], [5.6247, -5.4379], [5.6364, -5.4409], [5.6481, -5.4788], [5.6438, -5.5015], [5.6853, -5.5102], [5.7437, -5.4941], [5.7714, -5.5154], [5.7268, -5.5986], [5.6544, -5.6758], [5.6197, -5.6597], [5.5181, -5.7402], [5.2708, -5.8176], [5.2308, -5.8464], [5.1823, -5.8406], [5.1, -5.8874]]]}}, {"type": "Feature", "properties": {"shapeName": "Dir Lower"}, "geometry": {"type": "Polygon", "coordinates": [[[6.4207, -3.1799], [6.3494, -3.1372], [6.3594, -3.0961], [6.3435, -3.0667], [6.3448, -3.0511], [6.3612, -3.0508], [6.3745, -3.0246], [6.3916, -3.0309], [6.4004, -3.0197], [6.3734, -3.015], [6.3155, -2.9767], [6.1773, -2.9526], [6.1364, -2.8383], [6.0533, -2.7639], [6.062, -2.7421], [6.1181, -2.7157], [6.0901, -2.6778], [6.1458, -2.6883], [6.2023, -2.7165], [6.311, -2.7188], [6.3391, -2.6846], [6.4359, -2.6614], [6.5047, -2.7116], [6.5253, -2.7542], [6.5469, -2.7616], [6.5329, -2.8307], [6.5655, -2.8415], [6.5817, -2.8835], [6.6016, -2.8743], [6.6505, -2.9252], [6.712, -2.9423], [6.7835, -2.8988], [6.8219, -2.9038], [6.8073, -2.9263], [6.8404, -2.9405], [6.8606, -2.9747], [6.773, -3.042], [6.7635, -3.0951], [6.7411, -3.1136], [6.7362, -3.1377], [6.644, -3.1636], [6.5555, -3.1578], [6.4207, -3.1799]]]}}, {"type": "Feature", "properties": {"shapeName": "SW Mehsud Belt"}, "geometry": {"type": "Polygon", "coordinates": [[[4.5122, -6.4023], [4.4869, -6.3744], [4.4657, -6.3784], [4.4491, -6.3619], [4.3812, -6.3689], [4.3268, -6.3532], [4.318, -6.3322], [4.29, -6.3146], [4.2195, -6.3078], [4.2239, -6.2613], [4.1951, -6.2644], [4.1542, -6.3106], [4.1197, -6.3223], [4.1301, -6.3177], [4.1126, -6.3124], [4.1252, -6.2131], [4.0404, -6.1772], [4.0889, -6.0757], [3.8626, -6.124], [3.8277, -6.1876], [3.7324, -6.2435], [3.7032, -6.2207], [3.5282, -6.2324], [3.4686, -6.2493], [3.4342, -6.1766], [3.4351, -6.0872], [3.4096, -6.0292], [3.4049, -5.886], [3.4174, -5.8623], [3.4181, -5.7826], [3.3713, -5.6798], [3.3709, -5.6623], [3.4345, -5.5715], [3.5379, -5.5465], [3.5745, -5.4953], [3.6292, -5.5074], [3.6532, -5.5368], [3.6803, -5.5465], [3.7049, -5.5351], [3.7243, -5.5435], [3.8444, -5.4877], [3.8706, -5.5143], [3.9069, -5.6089], [3.8764, -5.6122], [3.873, -5.7314], [3.9103, -5.7822], [3.9107, -5.8039], [3.9318, -5.8043], [3.9554, -5.8378], [3.9031, -5.8456], [3.9086, -5.8903], [3.9398, -5.9128], [3.9473, -5.9765], [3.9552, -5.9869], [4.07, -5.9645], [4.1285, -5.9815], [4.1927, -5.9776], [4.2715, -6.0175], [4.2861, -5.9902], [4.3227, -6.012], [4.3227, -6.0011], [4.3516, -6.0017], [4.3551, -6.0189], [4.3828, -6.0292], [4.3942, -6.0529], [4.3893, -6.0736], [4.4144, -6.1609], [4.464, -6.19], [4.4814, -6.1825], [4.4896, -6.1953], [4.4793, -6.2043], [4.4916, -6.2154], [4.5282, -6.3651], [4.5122, -6.4023]]]}}, {"type": "Feature", "properties": {"shapeName": "Malakand"}, "geometry": {"type": "Polygon", "coordinates": [[[6.4725, -3.4477], [6.4294, -3.4751], [6.3965, -3.4337], [6.3572, -3.4202], [6.3417, -3.3705], [6.2866, -3.3824], [6.2309, -3.3571], [6.2278, -3.2986], [6.2057, -3.2744], [6.2428, -3.25], [6.2527, -3.1839], [6.2852, -3.1757], [6.3088, -3.1494], [6.3352, -3.1528], [6.3495, -3.1372], [6.4207, -3.1799], [6.5555, -3.1578], [6.644, -3.1636], [6.7459, -3.1258], [6.7899, -3.1418], [6.7687, -3.1746], [6.7919, -3.2065], [6.7866, -3.2203], [6.8139, -3.2374], [6.89, -3.2413], [6.9097, -3.2771], [6.8718, -3.3064], [6.8374, -3.2887], [6.7851, -3.2862], [6.7242, -3.3354], [6.7274, -3.3565], [6.7179, -3.3236], [6.7014, -3.3243], [6.6564, -3.2882], [6.6308, -3.2904], [6.5828, -3.3346], [6.5917, -3.3682], [6.5811, -3.386], [6.5426, -3.3923], [6.5354, -3.4201], [6.5038, -3.4232], [6.4988, -3.4497], [6.4725, -3.4477]]]}}, {"type": "Feature", "properties": {"shapeName": "Mansehra"}, "geometry": {"type": "Polygon", "coordinates": [[[7.8051, -3.6521], [7.7094, -3.6074], [7.6866, -3.572], [7.6389, -3.5498], [7.6612, -3.5154], [7.6454, -3.4838], [7.6173, -3.4662], [7.598, -3.4047], [7.6175, -3.3985], [7.6334, -3.3732], [7.657, -3.3794], [7.6814, -3.3604], [7.6939, -3.338], [7.6888, -3.3175], [7.7387, -3.2793], [7.7499, -3.2438], [7.8361, -3.2207], [7.8574, -3.2507], [7.9133, -3.2471], [7.9211, -3.1793], [7.9423, -3.1597], [7.9692, -3.1448], [8.0337, -3.1485], [8.0526, -3.0673], [8.0811, -3.0338], [8.0676, -3.0062], [8.0756, -2.9983], [8.1734, -2.982], [8.2714, -3.0079], [8.2834, -2.9767], [8.332, -2.9669], [8.337, -2.9437], [8.3989, -2.8968], [8.3924, -2.8653], [8.454, -2.8302], [8.4802, -2.7701], [8.5003, -2.7687], [8.5061, -2.7508], [8.5594, -2.746], [8.5945, -2.7695], [8.6243, -2.7254], [8.6632, -2.7159], [8.718, -2.7296], [8.7358, -2.7218], [8.7813, -2.7427], [8.8128, -2.7072], [8.8133, -2.6506], [8.8327, -2.6285], [8.8958, -2.625], [8.9419, -2.5883], [8.9421, -2.556], [8.9976, -2.5326], [9.036, -2.5734], [9.1313, -2.5722], [9.1254, -2.5968], [9.1591, -2.625], [9.1132, -2.64], [9.0849, -2.6971], [9.1205, -2.7123], [9.1318, -2.731], [9.0655, -2.7604], [9.0826, -2.8227], [9.0427, -2.8397], [9.0475, -2.8736], [9.0288, -2.8935], [8.9629, -2.902], [8.9544, -2.9318], [8.9213, -2.9376], [8.9075, -2.962], [8.8778, -2.9529], [8.8347, -2.966], [8.8171, -2.959], [8.7945, -2.9838], [8.7264, -2.9816], [8.6832, -3.0072], [8.6537, -3.0627], [8.5971, -3.1257], [8.6401, -3.149], [8.5902, -3.206], [8.5984, -3.2261], [8.5848, -3.2502], [8.5369, -3.224], [8.4758, -3.2174], [8.4458, -3.2384], [8.3507, -3.2342], [8.3397, -3.2519], [8.3438, -3.2766], [8.3266, -3.2925], [8.3346, -3.3194], [8.3187, -3.358], [8.3261, -3.3966], [8.3023, -3.4592], [8.2296, -3.4743], [8.2009, -3.5245], [8.1646, -3.5445], [8.1369, -3.5433], [8.1363, -3.5624], [8.1167, -3.5828], [8.0662, -3.5652], [8.0383, -3.6349], [8.025, -3.6145], [8.007, -3.6223], [7.9802, -3.6049], [7.9041, -3.6347], [7.8924, -3.6071], [7.8738, -3.6058], [7.8719, -3.5874], [7.8572, -3.5871], [7.8235, -3.6109], [7.8051, -3.6521]]]}}, {"type": "Feature", "properties": {"shapeName": "Mardan"}, "geometry": {"type": "Polygon", "coordinates": [[[6.6742, -3.7994], [6.6812, -3.7821], [6.6648, -3.7775], [6.6551, -3.7433], [6.5544, -3.734], [6.5298, -3.6843], [6.5203, -3.6874], [6.5251, -3.6698], [6.505, -3.62], [6.488, -3.6191], [6.4914, -3.602], [6.4387, -3.5921], [6.4318, -3.5695], [6.4127, -3.5615], [6.4243, -3.5026], [6.4429, -3.498], [6.4318, -3.4661], [6.4725, -3.4477], [6.4988, -3.4497], [6.5038, -3.4232], [6.5354, -3.4201], [6.5426, -3.3923], [6.5756, -3.3909], [6.5917, -3.3682], [6.5828, -3.3346], [6.6281, -3.2919], [6.6788, -3.2973], [6.7014, -3.3243], [6.7179, -3.3236], [6.7274, -3.3565], [6.724, -3.3357], [6.7661, -3.2946], [6.8384, -3.2889], [6.8971, -3.3284], [6.8977, -3.3732], [6.942, -3.3967], [7.0629, -3.3939], [7.097, -3.4221], [7.1345, -3.4294], [7.1343, -3.4631], [7.0809, -3.5044], [7.0318, -3.5092], [7.0326, -3.5454], [7.0068, -3.574], [7.0313, -3.608], [6.951, -3.5973], [6.8723, -3.6135], [6.8863, -3.6402], [6.876, -3.6629], [6.8869, -3.6641], [6.8657, -3.6773], [6.8649, -3.6901], [6.879, -3.6915], [6.8684, -3.7172], [6.8714, -3.7909], [6.8136, -3.7889], [6.8019, -3.8075], [6.6742, -3.7994]]]}}, {"type": "Feature", "properties": {"shapeName": "Mohmand"}, "geometry": {"type": "Polygon", "coordinates": [[[5.9392, -3.7042], [5.8255, -3.6972], [5.8259, -3.7088], [5.8142, -3.7067], [5.8129, -3.6735], [5.7905, -3.666], [5.8231, -3.5941], [5.8047, -3.5684], [5.7342, -3.5162], [5.6545, -3.5063], [5.6581, -3.4771], [5.5883, -3.4579], [5.5989, -3.4164], [5.577, -3.3965], [5.5424, -3.3917], [5.519, -3.4071], [5.4777, -3.3755], [5.4548, -3.3209], [5.4707, -3.3097], [5.4629, -3.2814], [5.4981, -3.2348], [5.5558, -3.2214], [5.5886, -3.1728], [5.5637, -3.1396], [5.5804, -3.0852], [5.6544, -3.0556], [5.6735, -3.079], [5.6964, -3.0851], [5.7188, -3.0631], [5.7732, -3.1183], [5.768, -3.1421], [5.7901, -3.1463], [5.8328, -3.1395], [5.8712, -3.1519], [5.9701, -3.1178], [6.018, -3.138], [6.0682, -3.1162], [6.0997, -3.1213], [6.1132, -3.1443], [6.0744, -3.1742], [6.0924, -3.2695], [6.1378, -3.3118], [6.1848, -3.3009], [6.1915, -3.2791], [6.2091, -3.2789], [6.2278, -3.2986], [6.2317, -3.3582], [6.2898, -3.381], [6.2293, -3.4158], [6.2281, -3.4459], [6.1896, -3.4604], [6.1893, -3.4885], [6.1505, -3.4729], [6.1153, -3.4997], [6.1127, -3.5173], [6.0808, -3.5398], [6.0865, -3.5921], [6.059, -3.6167], [6.0302, -3.6084], [6.0399, -3.6314], [6.0053, -3.6421], [6.0027, -3.6564], [5.9633, -3.6756], [5.9392, -3.7042]]]}}, {"type": "Feature", "properties": {"shapeName": "North Waziristan"}, "geometry": {"type": "Polygon", "coordinates": [[[3.7962, -5.4508], [3.8095, -5.468], [3.7979, -5.4787], [3.8108, -5.507], [3.7243, -5.5435], [3.7049, -5.5351], [3.6623, -5.5428], [3.6292, -5.5074], [3.5727, -5.4956], [3.6213, -5.4335], [3.6042, -5.4018], [3.6153, -5.3627], [3.567, -5.3327], [3.5523, -5.3056], [3.6065, -5.2664], [3.6421, -5.215], [3.6861, -5.2166], [3.7236, -5.199], [3.7161, -5.1886], [3.7312, -5.1848], [3.6963, -5.1744], [3.6733, -5.1242], [3.6746, -5.0504], [3.6917, -5.0038], [3.7762, -4.9303], [3.9247, -4.9386], [4.0199, -4.8974], [4.0973, -4.935], [4.1784, -4.9231], [4.2031, -4.8968], [4.2918, -4.8826], [4.3531, -4.7953], [4.4087, -4.8068], [4.4616, -4.7907], [4.4649, -4.7737], [4.5336, -4.7435], [4.6133, -4.6652], [4.6638, -4.6609], [4.6663, -4.6504], [4.7187, -4.6365], [4.7511, -4.6485], [4.7979, -4.6371], [4.8162, -4.6593], [4.9074, -4.6417], [4.9039, -4.6575], [4.928, -4.6636], [4.9409, -4.7034], [4.9932, -4.7302], [5.0141, -4.7288], [4.9989, -4.7757], [4.8811, -4.822], [4.8423, -4.8668], [4.8564, -4.8985], [4.8081, -4.9154], [4.7663, -4.96], [4.7524, -5.0409], [4.7292, -5.0609], [4.7491, -5.0762], [4.6902, -5.1407], [4.6521, -5.2803], [4.5869, -5.3205], [4.5701, -5.3612], [4.5381, -5.3502], [4.5032, -5.3634], [4.4526, -5.3473], [4.3445, -5.3988], [4.3275, -5.4218], [4.2417, -5.3815], [4.2008, -5.4098], [4.129, -5.4028], [4.1167, -5.4318], [4.0937, -5.4364], [4.0398, -5.3896], [3.9806, -5.3906], [3.9543, -5.3659], [3.8541, -5.3968], [3.8428, -5.429], [3.811, -5.4312], [3.7962, -5.4508]]]}}, {"type": "Feature", "properties": {"shapeName": "Nowshera"}, "geometry": {"type": "Polygon", "coordinates": [[[6.4521, -4.148], [6.3885, -4.1417], [6.3375, -4.1013], [6.338, -4.0636], [6.3697, -4.049], [6.3583, -4.0243], [6.371, -3.9166], [6.3052, -3.9273], [6.2874, -3.92], [6.2828, -3.9073], [6.3031, -3.8946], [6.2854, -3.8858], [6.3044, -3.871], [6.2753, -3.8423], [6.2895, -3.8323], [6.2745, -3.8131], [6.2808, -3.7888], [6.3336, -3.7795], [6.4055, -3.8035], [6.4369, -3.8505], [6.5072, -3.7521], [6.5544, -3.734], [6.6551, -3.7433], [6.6648, -3.7775], [6.6812, -3.7821], [6.6751, -3.8012], [6.7027, -3.8075], [6.7498, -3.7986], [6.8019, -3.8075], [6.8136, -3.7889], [6.839, -3.7851], [6.9268, -3.8023], [6.9088, -3.8784], [6.8676, -3.9095], [6.9025, -3.9588], [6.9053, -4.0223], [6.9215, -4.0484], [6.909, -4.1341], [6.9189, -4.1653], [6.8847, -4.1548], [6.8593, -4.1674], [6.7235, -4.1396], [6.7267, -4.1606], [6.6768, -4.1785], [6.6557, -4.2169], [6.6372, -4.2037], [6.5681, -4.1947], [6.4672, -4.2382], [6.4174, -4.2404], [6.468, -4.1811], [6.4521, -4.148]]]}}, {"type": "Feature", "properties": {"shapeName": "Orakzai"}, "geometry": {"type": "Polygon", "coordinates": [[[5.4222, -4.4151], [5.3529, -4.3939], [5.3292, -4.4041], [5.252, -4.3986], [5.2212, -4.3778], [5.1384, -4.3644], [5.1433, -4.337], [5.1585, -4.3259], [5.1547, -4.3002], [5.0968, -4.2988], [4.9996, -4.2561], [4.9982, -4.2214], [4.9594, -4.1924], [4.9875, -4.1527], [4.9809, -4.138], [5.0241, -4.1258], [5.0461, -4.1681], [5.0944, -4.1932], [5.266, -4.1431], [5.3167, -4.1561], [5.4134, -4.1369], [5.4315, -4.1289], [5.4226, -4.0784], [5.5524, -4.0724], [5.6264, -4.1099], [5.6966, -4.0823], [5.7511, -4.1009], [5.7694, -4.1278], [5.8382, -4.176], [5.863, -4.1647], [5.867, -4.2065], [5.9044, -4.2189], [5.8996, -4.2415], [5.9367, -4.2611], [5.925, -4.276], [5.93, -4.2948], [5.8836, -4.2944], [5.8732, -4.323], [5.8438, -4.3245], [5.717, -4.2487], [5.7008, -4.2128], [5.6115, -4.1869], [5.5953, -4.1958], [5.6138, -4.2322], [5.6087, -4.2609], [5.6611, -4.3026], [5.6145, -4.2915], [5.5757, -4.3063], [5.5484, -4.3323], [5.6067, -4.3487], [5.6026, -4.3587], [5.5285, -4.3727], [5.4598, -4.4119], [5.4222, -4.4151]]]}}, {"type": "Feature", "properties": {"shapeName": "Peshawar"}, "geometry": {"type": "Polygon", "coordinates": [[[6.3275, -4.2717], [6.2657, -4.2873], [6.2566, -4.2747], [6.2546, -4.2602], [6.2837, -4.2363], [6.275, -4.2269], [6.1409, -4.2622], [6.0976, -4.2366], [6.0957, -4.2223], [6.0449, -4.1794], [6.0637, -4.1141], [5.9628, -4.0388], [5.9817, -3.9968], [5.9372, -3.9392], [5.9297, -3.8977], [5.8998, -3.8946], [5.9107, -3.8502], [5.8872, -3.7942], [5.9018, -3.782], [5.9018, -3.7588], [5.9375, -3.7281], [5.9398, -3.7022], [6.0028, -3.6564], [6.0055, -3.6421], [6.0296, -3.6378], [6.0251, -3.6605], [6.0437, -3.6863], [6.127, -3.6859], [6.1622, -3.7192], [6.2169, -3.7289], [6.254, -3.7669], [6.2929, -3.7787], [6.3024, -3.7863], [6.2808, -3.7888], [6.2744, -3.8064], [6.2895, -3.8323], [6.2753, -3.8423], [6.3044, -3.871], [6.2854, -3.8858], [6.3031, -3.8946], [6.2828, -3.9073], [6.2874, -3.92], [6.3052, -3.9273], [6.37, -3.9115], [6.3583, -4.0243], [6.3697, -4.049], [6.3373, -4.0634], [6.3375, -4.1013], [6.3885, -4.1417], [6.4441, -4.1432], [6.468, -4.1811], [6.4065, -4.2435], [6.3715, -4.2611], [6.3308, -4.2476], [6.3216, -4.2546], [6.3275, -4.2717]]]}}, {"type": "Feature", "properties": {"shapeName": "Shangla"}, "geometry": {"type": "Polygon", "coordinates": [[[7.4519, -3.1201], [7.407, -3.1301], [7.3985, -3.1556], [7.3148, -3.1691], [7.2908, -3.1321], [7.2689, -3.1283], [7.2577, -3.0941], [7.3162, -3.0336], [7.3088, -3.0069], [7.3341, -2.9032], [7.3268, -2.8425], [7.3449, -2.7982], [7.3169, -2.7692], [7.3162, -2.7433], [7.3898, -2.6779], [7.4275, -2.6723], [7.4703, -2.6134], [7.4656, -2.5961], [7.4911, -2.5771], [7.5292, -2.5844], [7.5364, -2.6053], [7.5619, -2.6091], [7.582, -2.6336], [7.5695, -2.668], [7.5747, -2.6944], [7.5983, -2.719], [7.6088, -2.7723], [7.7161, -2.7914], [7.6882, -2.8169], [7.6663, -2.8797], [7.8327, -2.9301], [7.8384, -2.9501], [7.8258, -2.9666], [7.7966, -2.9623], [7.7499, -2.9787], [7.7439, -3.0101], [7.7137, -3.0241], [7.6241, -3.0204], [7.5858, -3.0901], [7.5903, -3.1494], [7.5601, -3.1857], [7.6077, -3.2406], [7.5713, -3.2784], [7.5023, -3.2779], [7.5014, -3.2466], [7.4637, -3.1831], [7.4669, -3.1599], [7.4929, -3.1315], [7.4519, -3.1201]]]}}, {"type": "Feature", "properties": {"shapeName": "Swabi"}, "geometry": {"type": "Polygon", "coordinates": [[[6.9098, -4.0095], [6.9025, -3.9588], [6.8676, -3.9095], [6.9088, -3.8784], [6.9268, -3.8023], [6.8714, -3.7909], [6.8684, -3.7172], [6.879, -3.6915], [6.8649, -3.6901], [6.8657, -3.6773], [6.8869, -3.6641], [6.876, -3.6629], [6.8863, -3.6402], [6.8723, -3.6135], [6.951, -3.5973], [7.012, -3.6111], [7.0304, -3.6084], [7.0068, -3.574], [7.0326, -3.5454], [7.0329, -3.5081], [7.0809, -3.5044], [7.1398, -3.456], [7.1554, -3.4676], [7.1932, -3.4672], [7.204, -3.5101], [7.1664, -3.5431], [7.1605, -3.5663], [7.1814, -3.585], [7.1258, -3.6392], [7.1336, -3.6578], [7.1226, -3.6799], [7.1905, -3.6843], [7.2707, -3.7222], [7.2801, -3.6961], [7.3065, -3.6997], [7.3239, -3.6833], [7.3056, -3.6414], [7.3755, -3.5859], [7.4414, -3.5485], [7.5001, -3.5432], [7.5183, -3.5522], [7.5187, -3.574], [7.5362, -3.5813], [7.5448, -3.6058], [7.5252, -3.6624], [7.5371, -3.6879], [7.521, -3.7102], [7.5529, -3.723], [7.4429, -3.7818], [7.446, -3.794], [7.4216, -3.8073], [7.3967, -3.8625], [7.3242, -3.908], [7.2895, -3.8976], [7.2454, -3.909], [7.2032, -3.8981], [7.1741, -3.9048], [7.1424, -3.8928], [7.1093, -3.9034], [7.1084, -3.9196], [7.0785, -3.9361], [7.0736, -3.954], [6.9977, -3.959], [6.9735, -3.9922], [6.9098, -4.0095]]]}}, {"type": "Feature", "properties": {"shapeName": "Swat"}, "geometry": {"type": "Polygon", "coordinates": [[[6.8991, -3.24], [6.8139, -3.2374], [6.7866, -3.2203], [6.7919, -3.2065], [6.7687, -3.1746], [6.7899, -3.1418], [6.7388, -3.1214], [6.7635, -3.0951], [6.773, -3.042], [6.8606, -2.9747], [6.8404, -2.9405], [6.8073, -2.9263], [6.8219, -2.9038], [6.7835, -2.8988], [6.7822, -2.8745], [6.821, -2.8563], [6.8325, -2.7979], [6.8514, -2.778], [6.8443, -2.7416], [6.886, -2.698], [6.8662, -2.6109], [6.9251, -2.5972], [6.9512, -2.5464], [7.0211, -2.5223], [6.9693, -2.4427], [6.9956, -2.4132], [7.0088, -2.3528], [7.0473, -2.3503], [7.0634, -2.3279], [7.0486, -2.2798], [7.0723, -2.2173], [7.027, -2.1459], [7.0046, -2.1425], [6.9283, -2.0703], [6.8867, -2.0489], [6.8837, -2.021], [6.9026, -2.0198], [6.9398, -1.9741], [6.9777, -1.8617], [6.997, -1.8538], [7.0149, -1.8714], [7.0699, -1.8678], [7.1101, -1.8363], [7.1254, -1.794], [7.1671, -1.7902], [7.2237, -1.7482], [7.2369, -1.7111], [7.2846, -1.7352], [7.3164, -1.7744], [7.4252, -1.8035], [7.5664, -1.7686], [7.5769, -1.7905], [7.5732, -1.9156], [7.5219, -2.0739], [7.5264, -2.2189], [7.4897, -2.2616], [7.5088, -2.2962], [7.5615, -2.3155], [7.5342, -2.4317], [7.5231, -2.4466], [7.4829, -2.4487], [7.4897, -2.4723], [7.4639, -2.4816], [7.443, -2.5367], [7.485, -2.5634], [7.4598, -2.5819], [7.4536, -2.6205], [7.4224, -2.66], [7.3861, -2.6656], [7.3146, -2.7323], [7.3152, -2.7587], [7.3425, -2.7883], [7.3249, -2.8335], [7.332, -2.8955], [7.3074, -3.0013], [7.3146, -3.0286], [7.2614, -3.0845], [7.2129, -3.08], [7.1902, -3.1202], [7.1378, -3.1032], [7.1123, -3.111], [7.0743, -3.1324], [7.0449, -3.1795], [6.9769, -3.1926], [6.9428, -3.2267], [6.8991, -3.24]]]}}, {"type": "Feature", "properties": {"shapeName": "Tank"}, "geometry": {"type": "Polygon", "coordinates": [[[4.9726, -5.61], [4.9949, -5.655], [4.9745, -5.6895], [5.0449, -5.7396], [5.0728, -5.7352], [5.1025, -5.7587], [5.0914, -5.7728], [5.1076, -5.7882], [5.0587, -5.8192], [5.0486, -5.8545], [5.063, -5.8737], [4.9485, -5.9446], [4.9421, -6.0319], [4.9015, -6.074], [4.8468, -6.0679], [4.7328, -6.1032], [4.5847, -6.0891], [4.5601, -6.0705], [4.5501, -6.0848], [4.5708, -6.1106], [4.5258, -6.1573], [4.4676, -6.1909], [4.4144, -6.1609], [4.3893, -6.0736], [4.3942, -6.0529], [4.3828, -6.0292], [4.3551, -6.0189], [4.3465, -5.986], [4.3824, -5.9354], [4.3362, -5.9147], [4.3314, -5.8866], [4.3554, -5.8775], [4.3559, -5.8283], [4.3841, -5.7964], [4.3681, -5.7941], [4.3726, -5.781], [4.4024, -5.7563], [4.3722, -5.724], [4.3835, -5.7187], [4.3995, -5.5875], [4.498, -5.4751], [4.5344, -5.4895], [4.6028, -5.4552], [4.6452, -5.5176], [4.6909, -5.5296], [4.8581, -5.4976], [4.9163, -5.5296], [4.9149, -5.5437], [4.9726, -5.61]]]}}, {"type": "Feature", "properties": {"shapeName": "Tor Ghar"}, "geometry": {"type": "Polygon", "coordinates": [[[7.6543, -3.5284], [7.6132, -3.4871], [7.5836, -3.4967], [7.5376, -3.4735], [7.5096, -3.4863], [7.522, -3.4192], [7.4782, -3.3778], [7.4815, -3.3657], [7.5118, -3.3668], [7.5453, -3.3445], [7.4944, -3.2973], [7.4955, -3.2778], [7.5321, -3.282], [7.5511, -3.2701], [7.5626, -3.2783], [7.5967, -3.249], [7.5967, -3.2336], [7.5517, -3.1838], [7.5822, -3.1436], [7.5741, -3.0995], [7.5919, -3.0461], [7.6224, -3.0119], [7.701, -3.0188], [7.6916, -3.0496], [7.6914, -3.1141], [7.7054, -3.1274], [7.6971, -3.1834], [7.7028, -3.2101], [7.7436, -3.2489], [7.7454, -3.2692], [7.6888, -3.3175], [7.6939, -3.338], [7.6814, -3.3604], [7.657, -3.3794], [7.6334, -3.3732], [7.6175, -3.3985], [7.598, -3.4047], [7.6173, -3.4662], [7.6454, -3.4838], [7.6603, -3.5124], [7.6543, -3.5284]]]}}, {"type": "Feature", "properties": {"shapeName": "Dir Upper"}, "geometry": {"type": "Polygon", "coordinates": [[[6.7373, -2.9356], [6.6505, -2.9252], [6.6016, -2.8743], [6.5817, -2.8835], [6.5655, -2.8415], [6.5336, -2.8323], [6.5469, -2.7616], [6.5253, -2.7542], [6.5047, -2.7116], [6.4461, -2.6655], [6.3391, -2.6846], [6.311, -2.7187], [6.2023, -2.7165], [6.1458, -2.6883], [6.0901, -2.6778], [6.0801, -2.6522], [6.1332, -2.6035], [6.1882, -2.585], [6.2481, -2.5205], [6.2607, -2.4898], [6.2988, -2.4846], [6.3119, -2.4638], [6.3453, -2.458], [6.343, -2.4162], [6.3718, -2.3939], [6.3659, -2.3766], [6.405, -2.332], [6.4663, -2.3422], [6.4859, -2.2749], [6.5007, -2.2674], [6.4882, -2.2323], [6.5526, -2.2006], [6.5346, -2.189], [6.5369, -2.1204], [6.5974, -2.0498], [6.679, -2.0072], [6.7128, -2.0136], [6.7486, -1.9907], [6.7626, -1.9613], [6.733, -1.9361], [6.778, -1.8445], [6.8332, -1.8506], [6.858, -1.885], [6.8947, -1.8569], [6.9785, -1.8678], [6.9398, -1.9741], [6.8796, -2.0316], [6.8993, -2.062], [6.9283, -2.0703], [7.0046, -2.1425], [7.027, -2.1459], [7.0723, -2.2173], [7.0486, -2.2798], [7.0634, -2.3279], [7.0473, -2.3503], [7.0088, -2.3528], [6.9956, -2.4132], [6.9693, -2.4427], [7.0211, -2.5223], [6.9512, -2.5464], [6.9251, -2.5972], [6.8662, -2.6109], [6.886, -2.698], [6.8443, -2.7416], [6.8514, -2.778], [6.8325, -2.7979], [6.821, -2.8563], [6.7822, -2.8745], [6.7838, -2.9006], [6.7373, -2.9356]]]}}, {"type": "Feature", "properties": {"shapeName": "Kurram Upper"}, "geometry": {"type": "Polygon", "coordinates": [[[4.447, -4.2889], [4.4359, -4.2096], [4.373, -4.2183], [4.304, -4.194], [4.2763, -4.1987], [4.2336, -4.171], [4.2079, -4.0826], [4.1711, -4.0661], [4.161, -4.0121], [4.1047, -3.9708], [4.107, -3.9482], [4.1493, -3.9212], [4.1524, -3.859], [4.2539, -3.852], [4.268, -3.8398], [4.311, -3.8488], [4.371, -3.8842], [4.437, -3.8819], [4.497, -3.9134], [4.5548, -3.9248], [4.5426, -4.0327], [4.5631, -4.0671], [4.6228, -4.1102], [4.4931, -4.149], [4.49, -4.2148], [4.4669, -4.2754], [4.447, -4.2889]]]}}, {"type": "Feature", "properties": {"shapeName": "SW Wazir Belt"}, "geometry": {"type": "Polygon", "coordinates": [[[3.9552, -5.9869], [3.9398, -5.9128], [3.9086, -5.8903], [3.9031, -5.8456], [3.9554, -5.8378], [3.9318, -5.8043], [3.9107, -5.8039], [3.9103, -5.7822], [3.873, -5.7314], [3.8764, -5.6122], [3.9069, -5.6089], [3.8554, -5.498], [3.8444, -5.4877], [3.811, -5.5045], [3.8, -5.4958], [3.8095, -5.468], [3.7962, -5.4508], [3.811, -5.4312], [3.8428, -5.429], [3.849, -5.4008], [3.8798, -5.3842], [3.9543, -5.3659], [3.9806, -5.3906], [4.0398, -5.3896], [4.0797, -5.4345], [4.1154, -5.4329], [4.129, -5.4028], [4.2008, -5.4098], [4.2417, -5.3815], [4.3275, -5.4218], [4.3445, -5.3988], [4.3963, -5.3818], [4.4047, -5.3652], [4.4403, -5.3498], [4.469, -5.3463], [4.5032, -5.3634], [4.5432, -5.3504], [4.5664, -5.3628], [4.611, -5.3461], [4.6395, -5.3133], [4.7237, -5.309], [4.708, -5.3769], [4.6648, -5.3864], [4.6304, -5.4328], [4.5712, -5.4741], [4.5344, -5.4895], [4.5031, -5.4706], [4.3995, -5.5875], [4.3835, -5.7187], [4.3722, -5.724], [4.4024, -5.7563], [4.3726, -5.781], [4.3681, -5.7941], [4.3841, -5.7964], [4.3559, -5.8283], [4.3554, -5.8775], [4.3314, -5.8866], [4.3362, -5.9147], [4.3824, -5.9354], [4.3497, -5.9777], [4.3516, -6.0017], [4.3227, -6.0011], [4.3227, -6.012], [4.2861, -5.9902], [4.2715, -6.0175], [4.1927, -5.9776], [4.1285, -5.9815], [4.07, -5.9645], [3.9552, -5.9869]]]}}]}